{
  "type": "FeatureCollection",
  "features": [
    {
      "type": "Feature",
      "properties": {
        "norad_id": 67230,
        "name": "ELECTRON R/B",
        "group": "last-30-days",
        "lat": 41.96029093340101,
        "lon": -175.35640794568724,
        "alt_km": 540.4032115272821,
        "timestamp": "2025-12-26T04:40:04.515645+00:00",
        "meta_object_name": "ELECTRON R/B",
        "meta_object_id": "2025-307C",
        "meta_epoch": "2025-12-21T08:41:59.140320",
        "meta_mean_motion": 15.55087105,
        "meta_eccentricity": 0.02614087,
        "meta_inclination": 41.982,
        "meta_ra_of_asc_node": 123.1026,
        "meta_arg_of_pericenter": 268.141,
        "meta_mean_anomaly": 88.9482,
        "meta_ephemeris_type": 0,
        "meta_classification_type": "U",
        "meta_norad_cat_id": 67230,
        "meta_element_set_no": 999,
        "meta_rev_at_epoch": 1,
        "meta_bstar": 0.00020247584,
        "meta_mean_motion_dot": 0.00071881,
        "meta_mean_motion_ddot": 8.106877e-06,
        "tle_line1": "1 67230U 25307C   25355.36249005  .00071881  81069-5  20248-3 0  9997",
        "tle_line2": "2 67230  41.9820 123.1026 0261408 268.1410  88.9482 15.55087105    19"
      },
      "geometry": {
        "type": "Point",
        "coordinates": [
          -175.35640794568724,
          41.96029093340101
        ]
      }
    },
    {
      "type": "Feature",
      "properties": {
        "norad_id": 67231,
        "name": "CZ-12A R/B",
        "group": "last-30-days",
        "lat": -69.6720378665256,
        "lon": -32.999949729808385,
        "alt_km": 215.37948944079562,
        "timestamp": "2025-12-26T04:40:04.515655+00:00",
        "meta_object_name": "CZ-12A R/B",
        "meta_object_id": "2025-308A",
        "meta_epoch": "2025-12-25T23:07:48.590976",
        "meta_mean_motion": 16.2587348,
        "meta_eccentricity": 0.00211018,
        "meta_inclination": 69.7065,
        "meta_ra_of_asc_node": 55.0461,
        "meta_arg_of_pericenter": 148.7335,
        "meta_mean_anomaly": 211.5147,
        "meta_ephemeris_type": 0,
        "meta_classification_type": "U",
        "meta_norad_cat_id": 67231,
        "meta_element_set_no": 999,
        "meta_rev_at_epoch": 47,
        "meta_bstar": 0.0005399403,
        "meta_mean_motion_dot": 0.01764405,
        "meta_mean_motion_ddot": 4.394872e-06,
        "tle_line1": "1 67231U 25308A   25359.96375684  .01764405  43949-5  53994-3 0  9993",
        "tle_line2": "2 67231  69.7065  55.0461 0021101 148.7335 211.5147 16.25873480   477"
      },
      "geometry": {
        "type": "Point",
        "coordinates": [
          -32.999949729808385,
          -69.6720378665256
        ]
      }
    }
  ]
}